[{"OBJECT_NAME":"STARLINK-1502","OBJECT_ID":"2020-038AL","EPOCH":"2026-03-09T16:28:40.129248","MEAN_MOTION":15.47123466,"ECCENTRICITY":0.00027286,"INCLINATION":53.0523,"RA_OF_ASC_NODE":206.0601,"ARG_OF_PERICENTER":10.3487,"MEAN_ANOMALY":349.7575,"EPHEMERIS_TYPE":0,"CLASSIFICATION_TYPE":"U","NORAD_CAT_ID":45764,"ELEMENT_SET_NO":999,"REV_AT_EPOCH":31663,"BSTAR":0.0018007606,"MEAN_MOTION_DOT":0.00093492,"MEAN_MOTION_DDOT":0},{"OBJECT_NAME":"STARLINK-30761","OBJECT_ID":"2023-162S","EPOCH":"2026-03-09T22:00:01.999584","MEAN_MOTION":15.22487604,"ECCENTRICITY":0.00012558,"INCLINATION":43.0005,"RA_OF_ASC_NODE":131.2641,"ARG_OF_PERICENTER":271.7524,"MEAN_ANOMALY":352.0491,"EPHEMERIS_TYPE":0,"CLASSIFICATION_TYPE":"U","NORAD_CAT_ID":58134,"ELEMENT_SET_NO":999,"REV_AT_EPOCH":577,"BSTAR":0.050104307,"MEAN_MOTION_DOT":0.01299241,"MEAN_MOTION_DDOT":0}]
